#dP2022  1 21 18  0  0.00000000      96 __u+U ITR00 EXT  IAC
## 2193 496800.00000000   900.00000000 59600 0.7500000000000
+  112   C06C07C08C09C10C11C12C13C14C16C19C20C21C22C23C24C25
+        C26C27C28C29C30C32C33C34C35C36C37C38C39C40C41C42C43
+        C44C45C46E01E02E03E04E05E07E08E09E11E12E13E14E15E18
+        E19E21E24E25E26E27E30E31E33E36G01G02G03G04G05G06G07
+        G08G09G10G11G12G13G14G15G16G17G18G19G20G21G23G24G25
+        G26G27G28G29G30G31G32R01R02R03R04R05R07R08R09R11R12
+        R13R14R15R17R18R19R20R21R22R24  0  0  0  0  0  0  0
++         9  9  8 10  9  8  8  9  8  9  8  7  7  8  8  8  9
++        10  8  9  9  8 10  9 10  9 10  8  9 10 10  8  8  9
++         9  8  9  8  7  9  8  7  8  8  6  7  8  8  7  7  6
++         8  7  7  7  7  8  7  7  7  8  8  7  7  6  6  7  7
++         6  8  8  7  7  7  7  7  6  9  7  6  8  6  9  7  7
++         8  7  8  7  7  7  8 11  9  9  8  7  7  9  9  8  8
++         8  9  8  9  8  9 10  8  9  7  0  0  0  0  0  0  0
%c M  cc GPS ccc cccc cccc cccc cccc ccccc ccccc ccccc ccccc
%c cc cc ccc ccc cccc cccc cccc cccc ccccc ccccc ccccc ccccc
%f  0.0000000  0.000000000  0.00000000000  0.000000000000000
%f  0.0000000  0.000000000  0.00000000000  0.000000000000000
%i    0    0    0    0      0      0      0      0         0
%i    0    0    0    0      0      0      0      0         0
/* IAC                                ULTRA-RAPID PREDICTION
/* S/V CLOCKS ARE ALIGNED TO GNSS TIME                      
/* G:C1WC2W R:C1PC2P E:C1XC5X C:C2IC6I J:C1CC2S             
/* PCV:IGS14_2188 OL/AL:FES2004  NONE     YN ORB:CoN CLK:CoN
*  2022 01 22 12 15  0.00000000
PC06  -1432.354283  31245.619322 -28183.069155    -79.717249
PC07 -14824.140214  27631.815780  28129.182232     40.821674
PC08 -13335.406506  40016.734802  -2288.919438     78.366888
PC09   5594.186563  35045.220886 -22091.189014   -456.483645
PC10  -6712.067320  27982.315275  30956.726631    139.676742
PC11  15458.776382  -4328.637804 -22759.551617   -255.087215
PC12  20945.348415  13184.819461 -12860.575242   -434.700419
PC13  -8601.977364  40629.118916  -7952.158495   -139.367685
PC14  25704.837514  -8684.104918   6662.449197    465.565565
PC16  -3328.961472  29342.792965 -29882.102361     62.686586
PC19 -19315.818874  13441.858240 -14965.482525    906.825043
PC20 -27641.576444   3601.972041   1027.433872   -809.004688
PC21  19880.962690   9028.184165 -17371.519202   -968.829224
PC22    549.401873  15890.344359 -22932.063358   -958.895422
PC23   3163.098120 -26120.465401  -9284.869190   -970.708253
PC24  17905.325270  -4381.875902  20925.655966   -944.656055
PC25  14156.507771 -22802.958720   7582.437379   -790.836709
PC26  11227.901426  13926.205073  21413.552913    789.958269
PC27 -19273.374904 -19674.915788   4537.452630    665.352144
PC28  -7466.271163 -23761.384792 -12579.393817     23.804843
PC29  -8469.656586  14159.350703  22502.060590    504.825257
PC30 -20320.230801  -4008.322656  18711.473669    491.720992
PC32 -19878.575787  -8944.953608  17435.113929   -959.485560
PC33  19313.355790 -13556.232823  14912.437550   -954.978165
PC34  19994.349574   3049.348969 -19221.982909   -486.167402
PC35   7663.571459  23385.793687  13119.186247    104.603846
PC36 -14893.230654  22202.469447  -8002.817531   -875.154618
PC37 -10261.609928 -15139.231551 -21060.507069   -949.103131
PC38 -16556.603346  38614.288780   4562.699079    205.937347
PC39  -6194.527424  26463.797620 -32176.129353     34.698722
PC40 -20859.802648  21700.039737  29471.280030    237.814343
PC41   -111.951184 -16008.359637  22906.155941   -926.251251
PC42  27678.346118  -3060.027156  -1880.001260   -929.208980
PC43   9127.469970 -13700.777718 -22539.719181   -946.453843
PC44  19891.054646  19056.727538  -4350.183794    539.888969
PC45  -3040.802404  26076.405565   9500.675380    660.452967
PC46 -18013.277279   5994.145256 -20471.527977   -127.971095
PE01  23305.313440  -3521.052790  17895.485666   -564.371253
PE02 -23385.505049   3682.134089 -17788.841280    275.249890
PE03 -28370.046996  -5772.893212  -6149.715982   -519.732131
PE04  19332.447012  -8501.290639  20740.712046   -948.182035
PE05 -20905.802836 -16935.263243  12342.651275   -216.262548
PE07   1373.740382  18083.371083 -23393.946555   -631.084879
PE08 -18902.521313   8742.897679 -21034.835370   5867.945885
PE09  -1723.744228 -17992.095948  23438.022468   5386.475151
PE11   -760.310187 -28832.108293  -6693.715603   4623.976096
PE12  11598.301620 -16159.600538 -21920.266523   4797.521780
PE13    417.374276  28671.091845   7344.478529    425.868335
PE14  -3729.217127  15484.175129  18304.601739  -1719.002415
PE15 -11569.890349  16019.127646  22049.787103    767.822680
PE18  12575.261719 -16097.159612 -24563.198503  -1882.615515
PE19  28351.086650   7578.250826   3844.246550    483.799417
PE21  10828.662007  12610.505553  24489.150046   -712.713657
PE24   9705.160111 -22571.499832 -16498.449568  -1348.957684
PE25 -10625.796109 -12779.899463 -24490.299082   -561.111107
PE26  12539.699604  23755.734432 -12423.764244   -717.000453
PE27  -8550.331085  22419.803147  17345.669517   -215.179919
PE30 -23280.940779  18273.676971  -1034.685142   -212.367620
PE31  22731.350447 -18948.634753    -52.308709   -491.109153
PE33  16679.894377   6014.112546 -23688.445904   -460.153341
PE36 -12101.514300 -24400.697936  11610.331867   -321.600009
PG01 -13120.997453  10592.938489  20146.386265    450.816231
PG02  13935.502421  12672.331493 -18015.635591   -649.248396
PG03 -23073.265126  12910.895988   1727.007414    -88.469546
PG04 -18825.922361   3891.763434 -18358.953683   -193.734041
PG05  21588.822924  -1339.521937 -15675.036299    -68.774265
PG06   5704.251246  24750.155558  -7572.687693    178.293433
PG07  -6010.208921  23742.329953  -9255.462680    304.074894
PG08 -24307.178276  -4526.997859  10133.977363    -53.178072
PG09  -8358.009608  12984.514509 -21683.081782   -357.081637
PG10   2212.031644 -17425.329638  19968.069389   -300.056744
PG11  12426.245045  14681.719420 -18325.698844    -68.306328
PG12  24270.692079  -9781.984562   3833.255621   -159.586551
PG13  22898.052153  12861.448169   4347.722900    249.374847
PG14  -3514.020022  17775.899305  19392.891063    -74.120378
PG15  24601.028806   1580.799690   9891.375967    -89.634815
PG16 -19788.289519  -3714.670748 -17818.987614   -459.181038
PG17   6097.625858  18401.301975  18575.096496    564.863921
PG18   6076.938896 -24082.456784  -9268.802495    255.873503
PG19  13900.956122  19180.902682  11932.495208    108.880285
PG20  15075.106053   6926.754558 -20699.758429    517.054395
PG21 -15659.005145   -177.687948  22159.289280    156.625805
PG23  13376.612284 -19152.033097  12537.519504      8.666852
PG24  14818.916537  -6163.969776  20820.474619    276.957540
PG25  18600.703121 -17493.633348  -7032.769603    274.569741
PG26  -9427.409607 -12594.781067 -21480.144268    176.612072
PG27 -23575.900972 -12693.714093   -111.981334     82.378641
PG28   4554.740386  14713.723383  22178.697953    416.778965
PG29  11946.588795  -9600.925780 -21743.439145   -470.555546
PG30    -10.449360  26421.580684   -439.291586   -508.449224
PG31  -7264.753751 -23291.485657 -10020.776775   -161.139857
PG32 -11186.090715 -18417.998285  15775.191648    -54.641749
PR01 -17981.250335   7687.562153 -16373.381932      7.120663
PR02   2494.472785  10880.321011 -22891.222529    507.301634
PR03  19610.573071   7477.058239 -14413.275511     50.318858
PR04  25426.332269     -0.594109   1983.955786    124.613927
PR05  17212.533352  -7415.641146  17298.181806     86.385652
PR07 -20147.022428  -7281.829452  13922.516602     30.919476
PR08 -25445.059032     61.241873  -1944.605872    -63.221853
PR09   4944.265575 -21189.631408 -13356.465448     35.423425
PR11 -15001.944743   7282.770158 -19291.763087     46.820354
PR12 -14713.646399  20497.971647  -3814.322562    297.037575
PR13  -5844.116673  21434.000281  12519.853043    -17.368886
PR14   7190.353434   9275.846699  22652.670270     73.494774
PR15  15374.394246  -7712.516358  18848.118757     98.719643
PR17  14361.758460  19631.249997  -7727.947203    494.836638
PR18  13670.726919   6284.450213 -20560.294542    104.681704
PR19   6760.943542  -9215.262953 -22797.591558   -175.350799
PR20  -5815.101351 -22558.480280 -10428.966360    -63.528588
PR21 -14512.518455 -18874.431971   9130.142862   -272.039637
PR22 -13395.307210  -5598.168865  20994.333842   -159.743140
PR24   6498.880177  22671.150198   9756.287599     76.792440
EOF
